NORAD_CAT_ID,OBJECT_NAME,OBJECT_TYPE,EPOCH,MEAN_MOTION,ECCENTRICITY,INCLINATION,RA_OF_ASC_NODE,ARG_OF_PERICENTER,MEAN_ANOMALY,BSTAR,MEAN_MOTION_DOT,MEAN_MOTION_DDOT,TLE_LINE0,TLE_LINE1,TLE_LINE2,SEMIMAJOR_AXIS,PERIOD,APOGEE,PERIGEE,DECAYED
55316.0,STARLINK-5257,PAYLOAD,2023-09-10 03:19:40,14.98331698,0.0002814,70.0001,142.6989,268.8813,91.2023,2.1543e-06,-6.7e-07,0.0,0 STARLINK-5257,1 55316U 23010AZ  23253.13866286 -.00000067  00000-0  21543-5 0  9995,2 55316  70.0001 142.6989 0002814 268.8813  91.2023 14.98331698 38101,6950.188,96.107,574.008,570.097,0.0
55316.0,STARLINK-5257,PAYLOAD,2023-09-10 19:21:01,14.9832687,0.0002753,70.0002,141.0171,261.6804,98.4043,-3.2954e-05,-4.86e-06,0.0,0 STARLINK-5257,1 55316U 23010AZ  23253.80626667 -.00000486  00000-0 -32954-4 0  9999,2 55316  70.0002 141.0171 0002753 261.6804  98.4043 14.98326870 37028,6950.203,96.107,573.981,570.154,0.0
55316.0,STARLINK-5257,PAYLOAD,2023-09-11 01:45:33,14.98326702,0.0002996,69.9998,140.3427,271.7585,88.323,-1.4277e-05,-2.63e-06,0.0,0 STARLINK-5257,1 55316U 23010AZ  23254.07330703 -.00000263  00000-0 -14277-4 0  9993,2 55316  69.9998 140.3427 0002996 271.7585  88.3230 14.98326702 38247,6950.203,96.107,574.15,569.986,0.0
55316.0,STARLINK-5257,PAYLOAD,2023-09-11 17:46:53,14.98332619,0.0002888,69.9998,138.6593,270.7626,89.3202,5.3826e-05,5.49e-06,0.0,0 STARLINK-5257,1 55316U 23010AZ  23254.74090125  .00000549  00000-0  53826-4 0  9996,2 55316  69.9998 138.6593 0002888 270.7626  89.3202 14.98332619 37160,6950.185,96.107,574.057,570.043,0.0
55316.0,STARLINK-5257,PAYLOAD,2023-09-12 01:47:33,14.98334889,0.0002861,69.9999,137.8179,270.7684,89.3147,5.9567e-05,6.18e-06,0.0,0 STARLINK-5257,1 55316U 23010AZ  23255.07469897  .00000618  00000-0  59567-4 0  9994,2 55316  69.9999 137.8179 0002861 270.7684  89.3147 14.98334889 38392,6950.178,96.107,574.031,570.054,0.0
55316.0,STARLINK-5257,PAYLOAD,2023-09-12 17:48:55,14.98326738,0.0002756,69.9991,136.1327,265.0582,95.0262,3.0418e-05,2.7e-06,0.0,0 STARLINK-5257,1 55316U 23010AZ  23255.74230404  .00000270  00000-0  30418-4 0  9996,2 55316  69.9991 136.1327 0002756 265.0582  95.0262 14.98326738 37315,6950.203,96.107,573.983,570.153,0.0
55316.0,STARLINK-5257,PAYLOAD,2023-09-12 21:01:11,14.98327169,0.0003069,69.9993,135.7974,269.2202,90.8605,1.2198e-05,5.3e-07,0.0,0 STARLINK-5257,1 55316U 23010AZ  23255.87582462  .00000053  00000-0  12198-4 0  9998,2 55316  69.9993 135.7974 0003069 269.2202  90.8605 14.98327169 38519,6950.202,96.107,574.2,569.934,0.0
55316.0,STARLINK-5257,PAYLOAD,2023-09-13 01:49:34,14.98333549,0.0003093,69.999,135.2919,271.5532,88.5272,7.2976e-05,7.78e-06,0.0,0 STARLINK-5257,1 55316U 23010AZ  23256.07609875  .00000778  00000-0  72976-4 0  9993,2 55316  69.9990 135.2919 0003093 271.5532  88.5272 14.98333549 37364,6950.182,96.107,574.197,569.897,0.0
55316.0,STARLINK-5257,PAYLOAD,2023-09-13 22:39:19,14.98336819,0.0002972,69.9991,133.1033,269.1166,90.9653,2.4006e-06,-6.4e-07,0.0,0 STARLINK-5257,1 55316U 23010AZ  23256.94397689 -.00000064  00000-0  24006-5 0  9997,2 55316  69.9991 133.1033 0002972 269.1166  90.9653 14.98336819 38678,6950.172,96.107,574.102,569.971,0.0
55316.0,STARLINK-5257,PAYLOAD,2023-09-14 01:51:35,14.98339462,0.0003005,69.999,132.7668,267.5737,92.5078,1.2182e-05,5.2e-07,0.0,0 STARLINK-5257,1 55316U 23010AZ  23257.07749397  .00000052  00000-0  12182-4 0  9996,2 55316  69.9990 132.7668 0003005 267.5737  92.5078 14.98339462 37518,6950.164,96.106,574.117,569.94,0.0
55316.0,STARLINK-5257,PAYLOAD,2023-09-14 16:16:48,14.98347266,0.0003099,69.999,131.2525,263.3729,96.7078,-0.0004017,-4.885e-05,0.0,0 STARLINK-5257,1 55316U 23010AZ  23257.67834245 -.00004885  00000-0 -40170-3 0  9996,2 55316  69.9990 131.2525 0003099 263.3729  96.7078 14.98347266 37609,6950.139,96.106,574.158,569.851,0.0
55316.0,STARLINK-5257,PAYLOAD,2023-09-14 21:05:13,14.98321084,0.0003143,69.9993,130.7482,268.2766,91.8033,-1.4947e-05,-2.71e-06,0.0,0 STARLINK-5257,1 55316U 23010AZ  23257.87862629 -.00000271  00000-0 -14947-4 0  9994,2 55316  69.9993 130.7482 0003143 268.2766  91.8033 14.98321084 38814,6950.22,96.108,574.27,569.901,0.0
55316.0,STARLINK-5257,PAYLOAD,2023-09-15 01:53:37,14.98322898,0.0003178,69.9991,130.2423,270.9668,89.1127,-5.5067e-05,-7.5e-06,0.0,0 STARLINK-5257,1 55316U 23010AZ  23258.07890713 -.00000750  00000-0 -55067-4 0  9992,2 55316  69.9991 130.2423 0003178 270.9668  89.1127 14.98322898 37661,6950.215,96.107,574.289,569.871,0.0
55316.0,STARLINK-5257,PAYLOAD,2023-09-15 17:54:57,14.98330479,0.0003174,69.9992,128.5589,271.8394,88.2402,8.684e-06,1.1e-07,0.0,0 STARLINK-5257,1 55316U 23010AZ  23258.74650056  .00000011  00000-0  86840-5 0  9992,2 55316  69.9992 128.5589 0003174 271.8394  88.2402 14.98330479 37768,6950.191,96.107,574.262,569.85,0.0
55316.0,STARLINK-5257,PAYLOAD,2023-09-16 01:55:37,14.9833007,0.0003151,69.999,127.7175,268.8196,91.2602,0.00014425,1.629e-05,0.0,0 STARLINK-5257,1 55316U 23010AZ  23259.08029689  .00001629  00000-0  14425-3 0  9996,2 55316  69.9990 127.7175 0003151 268.8196  91.2602 14.98330070 38998,6950.193,96.107,574.248,569.868,0.0
55316.0,STARLINK-5257,PAYLOAD,2023-09-16 17:56:58,14.98311865,0.0003055,69.9995,126.0352,263.0627,97.0185,0.00031002,3.606e-05,0.0,0 STARLINK-5257,1 55316U 23010AZ  23259.74790122  .00003606  00000-0  31002-3 0  9993,2 55316  69.9995 126.0352 0003055 263.0627  97.0185 14.98311865 37913,6950.249,96.108,574.237,569.991,0.0
55316.0,STARLINK-5257,PAYLOAD,2023-09-17 00:21:31,14.98310183,0.000317,69.9993,125.3608,268.6898,91.3898,0.00032105,3.738e-05,0.0,0 STARLINK-5257,1 55316U 23010AZ  23260.01494487  .00003738  00000-0  32105-3 0  9991,2 55316  69.9993 125.3608 0003170 268.6898  91.3898 14.98310183 39132,6950.254,96.108,574.322,569.916,0.0
55316.0,STARLINK-5257,PAYLOAD,2023-09-17 17:58:59,14.98332081,0.0002974,69.9991,123.5091,267.0353,93.0465,-2.4818e-05,-3.89e-06,0.0,0 STARLINK-5257,1 55316U 23010AZ  23260.74929996 -.00000389  00000-0 -24818-4 0  9993,2 55316  69.9991 123.5091 0002974 267.0353  93.0465 14.98332081 38067,6950.186,96.107,574.118,569.984,0.0
55316.0,STARLINK-5257,PAYLOAD,2023-09-18 00:23:31,14.98333036,0.0003036,69.999,122.8357,268.7962,91.285,-1.4321e-05,-2.64e-06,0.0,0 STARLINK-5257,1 55316U 23010AZ  23261.01633877 -.00000264  00000-0 -14321-4 0  9994,2 55316  69.9990 122.8357 0003036 268.7962  91.2850 14.98333036 39281,6950.184,96.107,574.159,569.938,0.0
55316.0,STARLINK-5257,PAYLOAD,2023-09-18 18:01:00,14.98326689,0.0003016,69.9987,120.9841,266.3066,93.7748,-2.0459e-05,-3.37e-06,0.0,0 STARLINK-5257,1 55316U 23010AZ  23261.75070228 -.00000337  00000-0 -20459-4 0  9990,2 55316  69.9987 120.9841 0003016 266.3066  93.7748 14.98326689 38212,6950.203,96.107,574.164,569.972,0.0
55316.0,STARLINK-5257,PAYLOAD,2023-09-18 21:13:16,14.98328412,0.0003067,69.9984,120.6467,267.5391,92.5417,-2.6166e-06,-1.24e-06,0.0,0 STARLINK-5257,1 55316U 23010AZ  23261.88422078 -.00000124  00000-0 -26166-5 0  9994,2 55316  69.9984 120.6467 0003067 267.5391  92.5417 14.98328412 39419,6950.198,96.107,574.194,569.931,0.0
55316.0,STARLINK-5257,PAYLOAD,2023-09-19 00:25:32,14.98332601,0.0003027,69.9985,120.3106,266.5283,93.5529,3.0115e-05,2.66e-06,0.0,0 STARLINK-5257,1 55316U 23010AZ  23262.01773714  .00000266  00000-0  30115-4 0  9999,2 55316  69.9985 120.3106 0003027 266.5283  93.5529 14.98332601 38253,6950.185,96.107,574.154,569.946,0.0
55316.0,STARLINK-5257,PAYLOAD,2023-09-20 00:27:32,14.98339415,0.0003102,69.9988,117.7855,265.1663,94.9142,7.2555e-05,7.73e-06,0.0,0 STARLINK-5257,1 55316U 23010AZ  23263.01912984  .00000773  00000-0  72555-4 0  9991,2 55316  69.9988 117.7855 0003102 265.1663  94.9142 14.98339415 38401,6950.164,96.106,574.185,569.873,0.0
55316.0,STARLINK-5257,PAYLOAD,2023-09-20 18:05:03,14.98313167,0.0003018,69.9986,115.9323,268.9391,91.1423,-9.5846e-05,-1.236e-05,0.0,0 STARLINK-5257,1 55316U 23010AZ  23263.75351172 -.00001236  00000-0 -95846-4 0  9993,2 55316  69.9986 115.9323 0003018 268.9391  91.1423 14.98313167 38513,6950.245,96.108,574.208,570.012,0.0
55316.0,STARLINK-5257,PAYLOAD,2023-09-20 21:17:19,14.98315992,0.000275,69.9989,115.5963,260.5962,99.4886,-7.4181e-05,-9.78e-06,0.0,0 STARLINK-5257,1 55316U 23010AZ  23263.88703023 -.00000978  00000-0 -74181-4 0  9994,2 55316  69.9989 115.5963 0002750 260.5962  99.4886 14.98315992 39711,6950.236,96.108,574.013,570.19,0.0
55316.0,STARLINK-5257,PAYLOAD,2023-09-21 00:29:35,14.98319981,0.0003084,69.9987,115.2607,268.5614,91.5192,-3.9432e-05,-5.63e-06,0.0,0 STARLINK-5257,1 55316U 23010AZ  23264.02054759 -.00000563  00000-0 -39432-4 0  9996,2 55316  69.9987 115.2607 0003084 268.5614  91.5192 14.98319981 38550,6950.224,96.108,574.232,569.945,0.0
55316.0,STARLINK-5257,PAYLOAD,2023-09-21 13:18:39,14.98325702,0.0003078,69.9985,113.9125,268.9991,91.0815,-7.4307e-05,-9.79e-06,0.0,0 STARLINK-5257,1 55316U 23010AZ  23264.55462506 -.00000979  00000-0 -74307-4 0  9998,2 55316  69.9985 113.9125 0003078 268.9991  91.0815 14.98325702 39818,6950.206,96.107,574.21,569.932,0.0
55316.0,STARLINK-5257,PAYLOAD,2023-09-21 18:07:03,14.98328239,0.0003094,69.9985,113.4084,265.0599,95.0206,-5.2651e-05,-7.21e-06,0.0,0 STARLINK-5257,1 55316U 23010AZ  23264.75490303 -.00000721  00000-0 -52651-4 0  9999,2 55316  69.9985 113.4084 0003094 265.0599  95.0206 14.98328239 38665,6950.198,96.107,574.214,569.913,0.0
55316.0,STARLINK-5257,PAYLOAD,2023-09-21 21:19:19,14.98330602,0.0003143,69.9987,113.0723,269.7005,90.3794,-2.2015e-05,-3.56e-06,0.0,0 STARLINK-5257,1 55316U 23010AZ  23264.88842123 -.00000356  00000-0 -22015-4 0  9999,2 55316  69.9987 113.0723 0003143 269.7005  90.3794 14.98330602 39861,6950.191,96.107,574.24,569.872,0.0
55316.0,STARLINK-5257,PAYLOAD,2023-09-22 00:31:34,14.98368111,0.0003464,69.9988,112.7355,270.1893,89.8869,-0.00064593,-7.8e-05,0.0,0 STARLINK-5257,1 55316U 23010AZ  23265.02193110 -.00007800  00000-0 -64593-3 0  9998,2 55316  69.9988 112.7355 0003464 270.1893  89.8869 14.98368111 38700,6950.075,96.105,574.348,569.533,0.0
